MEAN_MOTION;ECCENTRICITY;INCLINATION;RA_OF_ASC_NODE;ARG_OF_PERICENTER;MEAN_ANOMALY;BSTAR;MEAN_MOTION_DOT;MEAN_MOTION_DDOT;TYPE
13.73016803;0.0013089;82.9245;124.6262;118.0836;0.3856;1.3781E-5;2.8E-7;0;Amateur
13.73016855;0.0013117;82.9243;123.9266;115.6864;351.8124;2.4234E-5;3.8E-7;0;Amateur
13.7301686;0.0013114;82.9243;123.8712;115.4838;1.9895;2.3417E-5;3.7E-7;0;Amateur
13.73016943;0.0013143;82.9241;123.059;112.7171;25.6103;3.5653E-5;4.8E-7;0;Amateur
13.73017003;0.0013159;82.924;122.5231;110.8924;3.9951;4.6259E-5;5.8E-7;0;Amateur
13.73017042;0.0013179;82.9238;122.0505;109.3013;279.7224;4.6726E-5;5.8E-7;0;Amateur
13.73017052;0.0013185;82.9238;121.7084;108.1267;44.0514;4.5435E-5;5.7E-7;0;Amateur
13.73016967;0.0013206;82.9237;121.0105;105.7905;24.0988;3.0364E-5;4.3E-7;0;Amateur
13.73016974;0.0013206;82.9237;120.9529;105.5892;48.6736;2.9466E-5;4.2E-7;0;Amateur
13.73016992;0.0013226;82.9235;120.2041;103.0825;8.2583;2.2382E-5;3.6E-7;0;Amateur
13.73016999;0.0013234;82.9235;119.9434;102.2011;309.0329;2.1814E-5;3.5E-7;0;Amateur
13.73017017;0.0013228;82.9234;119.4484;100.5331;14.2681;1.2687E-5;2.7E-7;0;Amateur
13.73017053;0.001323;82.9232;118.5922;97.6934;330.6178;6.2081E-6;2.1E-7;0;Amateur
13.73017084;0.001324;82.923;117.7837;94.9347;328.5891;2.9797E-6;1.8E-7;0;Amateur
13.73017045;0.0013237;82.9229;116.9757;92.1947;322.888;-1.184E-5;4.0E-8;0;Amateur
13.73017023;0.0013189;82.9226;116.806;91.6399;14.2775;1.4655E-6;1.7E-7;0;Amateur
13.73017036;0.0013187;82.9225;116.2711;89.832;345.2605;4.6677E-6;2.0E-7;0;Amateur
13.73017032;0.0013237;82.9227;116.0494;89.0953;26.7482;-1.3459E-5;3.0E-8;0;Amateur
13.73017027;0.0013235;82.9227;115.7803;88.1765;23.3016;-1.1998E-5;4.0E-8;0;Amateur
13.73017019;0.0013235;82.9226;115.5209;87.3109;315.0027;-8.0023E-6;8.0E-8;0;Amateur
13.73017014;0.0013231;82.9226;115.1853;86.1783;35.3845;-5.1986E-6;1.0E-7;0;Amateur
13.73017039;0.0013228;82.9226;115.024;85.6259;32.4694;-1.845E-6;1.4E-7;0;Amateur
13.73017058;0.0013225;82.9225;114.7649;84.7605;322.0912;5.9203E-6;2.1E-7;0;Amateur
13.73017088;0.0013216;82.9225;114.3229;83.271;32.9539;1.4597E-5;2.9E-7;0;Amateur
13.73017089;0.0013216;82.9224;114.2687;83.0902;34.6777;1.3166E-5;2.7E-7;0;Amateur
13.73017119;0.0013208;82.9223;113.5684;80.7452;29.8059;2.1325E-5;3.5E-7;0;Amateur
13.73017139;0.0013204;82.9223;113.308;79.8695;327.9263;2.8367E-5;4.1E-7;0;Amateur
13.73017163;0.0013188;82.9222;112.6055;77.4895;338.128;2.8893E-5;4.2E-7;0;Amateur
13.7301717;0.0013186;82.9222;112.5484;77.2991;359.2662;2.9458E-5;4.2E-7;0;Amateur
13.73017212;0.0013171;82.9221;111.7982;74.7918;327.3616;2.9967E-5;4.3E-7;0;Amateur
13.73017211;0.0013167;82.9221;111.6323;74.2326;355.2269;2.6417E-5;4.0E-7;0;Amateur
13.73017237;0.0013153;82.922;111.0962;72.4253;333.4535;2.8166E-5;4.1E-7;0;Amateur
13.7301726;0.0013131;82.922;110.3933;70.0244;345.8064;2.1019E-5;3.5E-7;0;Amateur
13.73017264;0.0013129;82.922;110.3403;69.8449;339.8091;2.0556E-5;3.4E-7;0;Amateur
13.73017272;0.0013107;82.922;109.6352;67.4638;6.7162;1.2317E-5;2.7E-7;0;Amateur
13.73017284;0.0013106;82.922;109.5867;67.2941;330.9599;1.3681E-5;2.8E-7;0;Amateur
13.73017292;0.0013088;82.922;109.1441;65.7894;45.5794;7.1835E-6;2.2E-7;0;Amateur
13.7301729;0.0013081;82.922;108.8838;64.9099;342.9905;6.628E-6;2.1E-7;0;Amateur
13.73017295;0.001308;82.922;108.8279;64.7092;356.1852;5.3095E-6;2.0E-7;0;Amateur
13.73017293;0.0013059;82.922;108.3882;63.2018;51.6269;-2.0684E-6;1.3E-7;0;Amateur
13.73017295;0.0013046;82.922;108.0198;61.9588;350.9231;-6.6843E-6;9.0E-8;0;Amateur
13.73017315;0.0013008;82.922;107.2081;59.2054;9.5408;-7.383E-6;8.0E-8;0;Amateur
13.73017365;0.0012984;82.922;106.6158;57.1614;3.2301;1.6148E-6;1.7E-7;0;Amateur
13.73017387;0.0012963;82.922;106.2235;55.8037;102.0076;4.4463E-6;1.9E-7;0;Amateur
13.73017419;0.0012925;82.922;105.4753;53.2309;56.7994;9.4678E-6;2.4E-7;0;Amateur
13.73017438;0.0012884;82.922;104.7194;50.651;62.8774;1.4249E-5;2.8E-7;0;Amateur
13.73017441;0.0012872;82.922;104.4036;49.5923;11.0438;1.7603E-5;3.1E-7;0;Amateur
13.73017478;0.0012851;82.922;103.9636;48.1022;68.6493;2.2474E-5;3.6E-7;0;Amateur
13.7301751;0.0012833;82.922;103.6486;47.049;11.2762;2.6809E-5;4.0E-7;0;Amateur
13.73017532;0.00128;82.9221;103.2633;45.6971;63.8531;3.13E-5;4.4E-7;0;Amateur
13.73017553;0.0012765;82.9221;102.7833;44.064;28.4176;3.166E-5;4.4E-7;0;Amateur
13.73017568;0.0012725;82.9221;102.1914;41.9272;19.8759;3.1767E-5;4.4E-7;0;Amateur
13.73017596;0.0012697;82.9222;101.7513;40.3458;77.7562;3.091E-5;4.4E-7;0;Amateur
13.73017619;0.0012678;82.9222;101.4368;39.2476;17.8143;2.9848E-5;4.3E-7;0;Amateur
13.73017639;0.0012644;82.9223;100.9958;37.7114;81.5212;2.6706E-5;4.0E-7;0;Amateur
13.73017666;0.0012618;82.9223;100.6856;36.6642;352.2823;2.6631E-5;4.0E-7;0;Amateur
13.73017694;0.0012566;82.9225;99.9795;34.1834;27.1284;1.8142E-5;3.2E-7;0;Amateur
13.73017716;0.0012534;82.9225;99.5395;32.598;84.6156;1.2539E-5;2.7E-7;0;Amateur
13.73017729;0.00125;82.9226;99.1153;31.1192;36.5687;6.0097E-6;2.1E-7;0;Amateur
13.73017791;0.0012442;82.9227;98.4691;28.8833;30.13;7.9417E-6;2.2E-7;0;Amateur
13.73017782;0.0012424;82.9227;98.3595;28.5111;42.7347;5.0021E-6;2.0E-7;0;Amateur
13.73017749;0.0012381;82.9228;97.7213;26.2545;343.4181;-4.4701E-6;1.1E-7;0;Amateur
13.73017739;0.001235;82.9229;97.3278;24.8542;89.8687;-7.734E-6;8.0E-8;0;Amateur
13.7301775;0.0012323;82.9229;97.0128;23.7413;33.3161;-6.4569E-6;9.0E-8;0;Amateur
13.7301775;0.0012291;82.923;96.5713;22.1456;100.8986;-5.7178E-6;1.0E-7;0;Amateur
13.73017768;0.0012263;82.923;96.2576;21.0213;35.6785;-1.123E-6;1.4E-7;0;Amateur
13.7301779;0.0012232;82.9231;95.8716;19.6259;92.6545;3.5874E-6;1.8E-7;0;Amateur
13.73017811;0.0012204;82.9232;95.5557;18.4894;42.1294;8.9672E-6;2.3E-7;0;Amateur
13.73017821;0.0012197;82.9232;95.5029;18.2845;34.3;9.1563E-6;2.4E-7;0;Amateur
13.7301786;0.001217;82.9232;95.1158;16.8494;98.8701;1.762E-5;3.1E-7;0;Amateur
13.73017876;0.0012131;82.9233;94.6914;15.3201;52.3544;1.9723E-5;3.3E-7;0;Amateur
13.73017911;0.0012105;82.9234;94.4149;14.3074;98.8771;2.6917E-5;4.0E-7;0;Amateur
13.73017946;0.001207;82.9234;94.0457;12.9913;44.1978;3.2239E-5;4.5E-7;0;Amateur
13.73017972;0.0012043;82.9235;93.6599;11.5237;99.9454;3.5299E-5;4.8E-7;0;Amateur
13.73017992;0.0012016;82.9235;93.2911;10.195;42.5911;3.5301E-5;4.8E-7;0;Amateur
13.73018007;0.0011983;82.9236;92.9032;8.766;112.5752;3.5132E-5;4.7E-7;0;Amateur
13.7301802;0.0011957;82.9236;92.5894;7.6421;48.2129;3.3489E-5;4.6E-7;0;Amateur
13.73018031;0.0011871;82.9237;91.8873;5.144;55.7141;3.0275E-5;4.3E-7;0;Amateur
13.73018036;0.0011863;82.9237;91.8348;4.952;46.4907;2.8704E-5;4.2E-7;0;Amateur
13.73018111;0.0011829;82.9239;91.1324;2.3113;57.1368;2.8772E-5;4.2E-7;0;Amateur
13.73018118;0.0011823;82.9239;91.0795;2.1117;50.484;2.7483E-5;4.0E-7;0;Amateur
13.73018155;0.0011746;82.9241;90.378;359.5342;55.1989;2.1766E-5;3.5E-7;0;Amateur
13.73018148;0.0011734;82.9241;90.3232;359.3566;60.9965;1.8714E-5;3.2E-7;0;Amateur
13.73018172;0.0011677;82.9243;89.6284;356.7491;21.201;1.2777E-5;2.7E-7;0;Amateur
13.73018194;0.0011642;82.9244;89.2365;355.2634;118.6523;1.02E-5;2.4E-7;0;Amateur
13.73018211;0.0011607;82.9245;88.8681;353.8901;58.8364;6.5396E-6;2.1E-7;0;Amateur
13.73018208;0.0011601;82.9245;88.8121;353.6765;72.5095;5.3013E-6;2.0E-7;0;Amateur
13.73018228;0.0011573;82.9246;88.4808;352.3993;125.4579;5.4868E-6;2.0E-7;0;Amateur
13.73018246;0.0011535;82.9247;88.1122;351.0176;67.3009;3.4208E-6;1.8E-7;0;Amateur
13.73018241;0.0011529;82.9247;88.0565;350.8056;79.367;2.9939E-6;1.8E-7;0;Amateur
13.73018243;0.0011505;82.9248;87.7798;349.7522;126.7394;2.0928E-6;1.7E-7;0;Amateur
13.73018255;0.0011471;82.9248;87.412;348.3663;63.4884;2.4421E-6;1.7E-7;0;Amateur
13.73018276;0.0011437;82.9249;87.0251;346.9024;126.9272;4.4725E-6;1.9E-7;0;Amateur
13.73018301;0.0011403;82.925;86.6567;345.4823;67.2893;6.6354E-6;2.1E-7;0;Amateur
13.73018308;0.0011369;82.9251;86.2693;343.9671;134.8872;1.0053E-5;2.4E-7;0;Amateur
13.73018317;0.0011331;82.9251;85.901;342.5616;74.7551;1.0615E-5;2.5E-7;0;Amateur
13.73018307;0.0011277;82.9253;85.2007;339.8179;72.0743;1.3649E-5;2.8E-7;0;Amateur
13.73018298;0.0011272;82.9253;85.1452;339.6051;82.7417;1.209E-5;2.6E-7;0;Amateur
13.73018325;0.0011207;82.9254;84.4455;336.8483;75.7589;1.7646E-5;3.1E-7;0;Amateur
13.7301832;0.0011176;82.9255;84.0583;335.3307;141.5702;1.966E-5;3.3E-7;0;Amateur
13.73018316;0.0011125;82.9256;83.6342;333.6873;94.4302;1.8962E-5;3.2E-7;0;Amateur
13.7301834;0.0011071;82.9257;82.9342;330.9101;90.4066;2.0914E-5;3.4E-7;0;Amateur
13.73018345;0.001107;82.9258;82.8824;330.6868;76.3352;2.2007E-5;3.5E-7;0;Amateur
13.73018366;0.0011044;82.9258;82.5459;329.3404;164.2693;2.1587E-5;3.5E-7;0;Amateur
13.73018393;0.0011012;82.9259;82.1785;327.8704;98.3504;2.1781E-5;3.5E-7;0;Amateur
13.73018387;0.0011008;82.926;82.1271;327.6699;81.9919;2.1712E-5;3.5E-7;0;Amateur
13.73018406;0.0010982;82.926;81.7904;326.32;170.928;2.0363E-5;3.4E-7;0;Amateur
13.73018417;0.0010953;82.9261;81.4789;325.0862;92.0428;1.6771E-5;3.0E-7;0;Amateur
13.73018405;0.0010935;82.9262;81.2553;324.1777;145.6147;1.5319E-5;2.9E-7;0;Amateur
13.73018395;0.0010894;82.9263;80.7231;322.0385;100.9806;4.5531E-6;1.9E-7;0;Amateur
13.73018404;0.0010883;82.9264;80.4399;320.856;192.6805;3.5823E-6;1.8E-7;0;Amateur
13.73018405;0.0010882;82.9264;80.392;320.6597;152.7077;2.2883E-6;1.7E-7;0;Amateur
13.73018437;0.0010822;82.9265;79.6362;317.5922;161.344;-2.7987E-6;1.2E-7;0;Amateur
13.73018473;0.0010747;82.9268;78.5678;313.2433;98.9665;-5.9926E-6;9.0E-8;0;Amateur
13.73018464;0.001074;82.9268;78.5123;313.0176;109.8121;-7.5473E-6;8.0E-8;0;Amateur
13.73018518;0.0010685;82.9268;77.8128;310.1427;102.6858;-1.8897E-6;1.3E-7;0;Amateur
13.73018511;0.0010678;82.9269;77.7566;309.9084;117.6481;-2.7643E-6;1.2E-7;0;Amateur
13.73018512;0.0010636;82.927;77.0571;307.0351;110.5253;1.6413E-7;1.5E-7;0;Amateur
13.73018497;0.0010589;82.9271;76.3013;303.9133;119.8039;1.6877E-6;1.7E-7;0;Amateur
13.73018502;0.0010589;82.9271;76.25;303.6754;102.8867;3.7351E-6;1.8E-7;0;Amateur
13.7301851;0.0010578;82.9271;75.97;302.5079;172.8568;6.6283E-6;2.1E-7;0;Amateur
